[{"OBJECT_NAME":"JILIN-1 GAOFEN 3J","OBJECT_ID":"2020-065J","EPOCH":"2026-03-09T22:30:27.627264","MEAN_MOTION":15.75586121,"ECCENTRICITY":0.00041731,"INCLINATION":97.2394,"RA_OF_ASC_NODE":125.824,"ARG_OF_PERICENTER":135.626,"MEAN_ANOMALY":224.5341,"EPHEMERIS_TYPE":0,"CLASSIFICATION_TYPE":"U","NORAD_CAT_ID":46462,"ELEMENT_SET_NO":999,"REV_AT_EPOCH":30471,"BSTAR":0.0010197143,"MEAN_MOTION_DOT":0.00157536,"MEAN_MOTION_DDOT":0},{"OBJECT_NAME":"STARLINK-11689 [DTC]","OBJECT_ID":"2025-119J","EPOCH":"2026-03-09T10:15:48.442464","MEAN_MOTION":15.70969714,"ECCENTRICITY":0.00012735,"INCLINATION":42.999,"RA_OF_ASC_NODE":210.6792,"ARG_OF_PERICENTER":230.0375,"MEAN_ANOMALY":130.0381,"EPHEMERIS_TYPE":0,"CLASSIFICATION_TYPE":"U","NORAD_CAT_ID":64241,"ELEMENT_SET_NO":999,"REV_AT_EPOCH":4520,"BSTAR":0.0016928391,"MEAN_MOTION_DOT":0.00223936,"MEAN_MOTION_DDOT":0}]
